OBJECT_NAME,OBJECT_ID,EPOCH,MEAN_MOTION,ECCENTRICITY,INCLINATION,RA_OF_ASC_NODE,ARG_OF_PERICENTER,MEAN_ANOMALY,EPHEMERIS_TYPE,CLASSIFICATION_TYPE,NORAD_CAT_ID,ELEMENT_SET_NO,REV_AT_EPOCH,BSTAR,MEAN_MOTION_DOT,MEAN_MOTION_DDOT
LEMUR-2-MANO,2023-100E,2024-01-20T10:19:54.281568,15.01728873,0.0014334,99.4869,191.0078,51.3727,308.8772,0,U,57390,999,2793,0.00079802,0.00010333,0.0
LEMUR-2-DEVERILL-M-T,2023-100F,2024-01-20T10:54:51.784128,15.01988689,0.0014365,99.4696,190.9447,53.8314,306.4231,0,U,57391,999,2794,0.00081584,0.00010639,0.0
LEO 3,2023-100G,2024-01-20T19:42:46.342080,13.67908216,0.0017683,99.46,147.1721,121.3063,238.9816,0,U,57392,999,2552,8.4384e-05,2.8e-07,0.0
TIANMU-1 07,2023-101A,2024-01-20T18:57:30.276000,15.15107419,0.0004609,97.3864,82.1718,3.8257,356.301,0,U,57399,999,2795,0.00039053,7.253e-05,0.0
TIANMU-1 08,2023-101B,2024-01-20T19:47:05.701920,15.15096931,0.0007107,97.3856,82.1015,0.6393,359.4847,0,U,57400,999,2794,0.00035761,6.636e-05,0.0
TIANMU-1 09,2023-101C,2024-01-20T17:45:11.217024,15.15102621,0.0007237,97.3809,81.9524,354.7866,5.329,0,U,57401,999,2793,0.00033704,6.251e-05,0.0
TIANMU-1 10,2023-101D,2024-01-20T16:56:00.114432,15.15172505,0.0009836,97.3891,82.0396,353.5113,6.599,0,U,57402,999,2792,0.00038581,7.184e-05,0.0
STARLINK-30240,2023-102A,2024-01-20T13:40:48.982368,15.02543198,0.0001221,43.0012,162.6377,252.0425,108.0284,0,U,57404,999,2903,0.00040791,5.312e-05,0.0
STARLINK-30192,2023-102B,2024-01-20T18:23:12.260832,15.02595145,0.0001399,43.0012,161.5134,283.8229,76.2458,0,U,57405,999,2906,0.002061,0.00027791,0.0
STARLINK-30195,2023-102C,2024-01-20T13:31:13.749312,15.02529262,8.03e-05,42.9998,162.5884,267.793,92.2821,0,U,57406,999,2903,-8.3462e-05,-1.33e-05,0.0
STARLINK-30207,2023-102D,2024-01-20T17:30:50.426784,15.02542694,0.0001353,43.0017,148.3377,286.2306,73.8387,0,U,57407,999,2921,0.0002164,2.721e-05,0.0
STARLINK-30205,2023-102E,2024-01-20T13:16:50.382624,15.02529611,0.0001281,43.0016,162.5153,274.6237,85.4459,0,U,57408,999,2903,-9.6379e-05,-1.505e-05,0.0
STARLINK-30222,2023-102F,2024-01-20T13:02:27.416832,15.02537547,0.0001423,43.002,162.4432,275.4667,84.6013,0,U,57409,999,2903,0.0001597,1.954e-05,0.0
STARLINK-30172,2023-102G,2024-01-20T13:12:02.444256,15.02530995,0.0001192,43.0014,162.4742,268.1305,91.9401,0,U,57410,999,2903,-3.7171e-05,-7.06e-06,0.0
STARLINK-30214,2023-102H,2024-01-20T14:04:37.094880,15.02536165,0.0001137,43.0015,161.9128,272.6943,87.3769,0,U,57411,999,2899,3.4454e-06,-1.57e-06,0.0
STARLINK-30182,2023-102J,2024-01-20T13:07:15.003552,15.02547157,0.0001513,43.0015,162.4651,286.3288,73.7387,0,U,57412,999,2903,-0.00023451,-3.371e-05,0.0
STARLINK-30191,2023-102K,2024-01-20T19:15:46.679904,15.0253992,0.0001342,43.0024,160.9467,283.9124,76.1569,0,U,57413,999,2907,0.00011636,1.369e-05,0.0
STARLINK-30193,2023-102L,2024-01-20T12:57:39.578688,15.02533581,0.0001496,43.0019,162.4155,276.2142,83.853,0,U,57414,999,2903,1.6772e-05,2.3e-07,0.0
STARLINK-30208,2023-102M,2024-01-20T19:10:59.414592,15.02564365,0.0001727,43.0017,160.9194,300.2428,59.8244,0,U,57415,999,2886,0.00091639,0.00012206,0.0
STARLINK-30224,2023-102N,2024-01-20T11:07:33.883968,15.02534502,0.0001265,43.0028,162.6987,263.7504,96.3194,0,U,57416,999,2902,-8.0204e-05,-1.287e-05,0.0
STARLINK-30043,2023-102P,2024-01-20T18:56:35.885472,15.02551622,0.0001399,43.0017,160.8445,280.1414,79.927,0,U,57417,999,2907,0.0017539,0.00023578,0.0
STARLINK-30221,2023-102Q,2024-01-20T12:38:28.947552,15.02533788,0.0001753,43.002,162.3119,271.2389,88.8252,0,U,57418,999,2903,-4.1107e-05,-7.59e-06,0.0
2023-103A,2023-103A,2024-01-20T19:48:30.607200,15.39635586,0.0009721,96.6099,94.4124,357.6017,2.5183,0,U,57421,999,2793,0.0015681,0.00062255,0.0
2023-103B,2023-103B,2024-01-20T19:06:23.572224,15.70746598,0.000616,96.6092,97.3562,265.4168,94.6393,0,U,57422,999,2815,0.00036882,0.00045741,0.0
2023-104A,2023-104A,2024-01-20T19:30:39.177216,15.27871405,0.0013207,97.3789,90.189,2.4844,357.6458,0,U,57424,999,2770,0.00054716,0.00014865,0.0
2023-104B,2023-104B,2024-01-20T18:49:01.692768,15.28403148,0.0014139,97.3782,90.2326,8.189,351.9578,0,U,57425,999,2770,0.00051405,0.00014194,0.0
2023-104C,2023-104C,2024-01-20T18:48:04.723200,15.27182566,0.0023954,97.3791,90.5423,325.5548,34.4137,0,U,57426,999,2773,0.00087518,0.0002349,0.0
2023-104D,2023-104D,2024-01-20T19:01:00.361920,15.33738589,0.0012225,97.3764,90.8078,2.3257,357.804,0,U,57427,999,2774,0.0011811,0.00038693,0.0
STARLINK-30189,2023-105A,2024-01-20T13:26:04.965216,15.02537009,0.0001428,43.0015,175.7001,259.5541,100.5141,0,U,57430,999,2831,-0.00024715,-3.541e-05,0.0
STARLINK-30170,2023-105B,2024-01-20T13:21:16.457472,15.02538953,0.0001158,43.0015,175.6742,261.9686,98.1025,0,U,57431,999,2836,-5.8503e-05,-9.94e-06,0.0
STARLINK-30188,2023-105C,2024-01-20T13:16:29.703648,15.0253134,0.0001096,43.0003,175.6484,251.5747,108.4977,0,U,57432,999,2832,-4.6478e-05,-8.31e-06,0.0
STARLINK-30105,2023-105D,2024-01-20T13:35:33.345024,15.26798391,0.0009914,43.0023,149.4188,343.9549,16.0987,0,U,57433,999,2872,0.0033387,0.00090674,0.0
STARLINK-30102,2023-105E,2024-01-20T19:29:50.675712,15.02515367,0.0001184,43.0015,174.1531,269.7492,90.3214,0,U,57434,999,2838,-0.00016431,-2.421e-05,0.0
STARLINK-30180,2023-105F,2024-01-20T13:11:41.271072,15.02550123,0.0001417,43.0015,175.6233,270.5644,89.5036,0,U,57435,999,2841,0.00030012,3.854e-05,0.0
STARLINK-30183,2023-105G,2024-01-20T19:25:00.101280,15.02557768,0.0001297,43.001,174.1278,270.554,89.5153,0,U,57436,999,2840,0.00054444,7.163e-05,0.0
STARLINK-30237,2023-105H,2024-01-20T19:15:25.641504,15.02543851,0.0001221,43.0027,174.0751,270.7578,89.3124,0,U,57437,999,2863,6.3078e-05,6.49e-06,0.0
STARLINK-30158,2023-105J,2024-01-20T19:20:14.159616,15.02553466,0.0001516,43.0018,174.1054,271.9271,88.1398,0,U,57438,999,2840,0.0028794,0.00038927,0.0
STARLINK-30173,2023-105K,2024-01-20T13:26:20.519808,15.02533886,0.0001119,43.0009,162.1197,264.7794,95.2921,0,U,57439,999,2851,2.6589e-05,1.56e-06,0.0
STARLINK-30159,2023-105L,2024-01-20T19:10:37.424064,15.02550345,0.0001353,43.0012,174.0506,265.1267,94.942,0,U,57440,999,2825,0.0010008,0.00013346,0.0
STARLINK-30160,2023-105M,2024-01-20T12:42:55.977984,15.02538924,0.0001214,43.0015,175.4726,272.0978,87.9726,0,U,57441,999,2819,6.9048e-05,7.29e-06,0.0
STARLINK-30146,2023-105N,2024-01-20T12:38:08.621952,15.02535681,0.000114,43.0026,175.447,269.7931,90.278,0,U,57442,999,2841,-7.393e-05,-1.202e-05,0.0
STARLINK-30197,2023-105P,2024-01-20T14:09:04.378464,15.02540163,0.0001585,43.001,175.0604,278.1435,81.9228,0,U,57443,999,2836,0.00018694,2.323e-05,0.0
STARLINK-30181,2023-105Q,2024-01-20T13:49:53.509728,15.02534118,0.0001469,43.0008,174.9615,271.8933,88.1741,0,U,57444,999,2842,2.7607e-05,1.69e-06,0.0
STARLINK-30215,2023-105R,2024-01-20T13:45:05.548896,15.02531033,0.0001431,43.0017,174.9412,281.6445,78.4237,0,U,57445,999,2820,-1.6073e-05,-4.21e-06,0.0
STARLINK-30162,2023-105S,2024-01-20T18:32:40.771968,15.0254047,0.0001276,43.0015,161.1182,280.8994,79.1705,0,U,57446,999,2855,0.001024,0.00013658,0.0
STARLINK-30178,2023-105T,2024-01-20T13:54:42.561792,15.02564611,0.0001329,43.0012,174.9882,275.6982,84.3708,0,U,57447,999,2836,0.0017914,0.00024097,0.0
STARLINK-30196,2023-105U,2024-01-20T13:40:18.230016,15.02530526,0.0001196,43.0012,174.9121,259.0665,101.0043,0,U,57448,999,2820,0.00048668,6.376e-05,0.0
STARLINK-30225,2023-105V,2024-01-20T13:35:29.994432,15.02538141,0.0001204,43.0015,174.8863,269.867,90.2035,0,U,57449,999,2842,3.4872e-05,2.68e-06,0.0
STARLINK-30217,2023-105W,2024-01-20T13:21:32.768928,15.02536872,0.0001106,42.9995,162.1241,248.629,111.4435,0,U,57450,999,2851,3.0836e-05,2.13e-06,0.0
STARLINK-30216,2023-105X,2024-01-20T13:30:42.905376,15.02532436,0.0001344,43.0013,174.8771,269.0831,90.9857,0,U,57451,999,2820,-1.812e-05,-4.48e-06,0.0
YAOGAN-36 05A,2023-106A,2024-01-20T19:43:58.814400,15.23090349,0.0006771,34.9965,181.4715,93.3419,266.8071,0,U,57452,999,2715,0.00057441,0.00013871,0.0
YAOGAN-36 05B,2023-106C,2024-01-20T19:43:22.936800,15.22986274,0.0002371,34.996,181.4655,0.8147,359.2572,0,U,57454,999,2711,0.00066072,0.00015908,0.0
YAOGAN-36 05C,2023-106E,2024-01-20T19:37:19.430400,15.23204773,0.0005108,34.9942,181.4126,41.8154,318.295,0,U,57456,999,2711,0.00078298,0.00018995,0.0
STARLINK-30165,2023-107A,2024-01-20T18:58:44.403744,15.02524723,0.0001486,43.0027,251.5532,267.6806,92.3866,0,U,57457,999,2760,-0.00015509,-2.297e-05,0.0
STARLINK-30140,2023-107B,2024-01-20T18:53:57.063264,15.02556108,0.0001795,43.0017,251.5286,275.8783,84.1855,0,U,57458,999,2793,0.00054406,7.157e-05,0.0
STARLINK-30185,2023-107C,2024-01-20T18:49:08.849280,15.02532069,0.0001098,43.0022,251.5039,249.4445,110.6279,0,U,57459,999,2792,3.9502e-05,3.3e-06,0.0
STARLINK-30077,2023-107D,2024-01-20T17:08:37.773312,15.02534246,0.0001942,43.0016,251.839,280.1672,79.8951,0,U,57460,999,2792,-2.6227e-06,-2.39e-06,0.0
STARLINK-30229,2023-107E,2024-01-19T23:54:47.619072,15.02541468,0.0001314,43.0031,255.9091,260.8928,99.1766,0,U,57461,999,2782,0.00012284,1.456e-05,0.0
STARLINK-30088,2023-107F,2024-01-20T17:03:49.165344,15.02537116,0.0001674,43.0018,251.8116,249.0205,111.0458,0,U,57462,999,2791,4.2039e-06,-1.47e-06,0.0
STARLINK-30091,2023-107G,2024-01-20T16:54:14.874912,15.0253466,0.0001263,43.0014,251.7629,262.5917,97.4781,0,U,57463,999,2792,-4.3832e-05,-7.96e-06,0.0
STARLINK-30115,2023-107H,2024-01-20T16:49:24.789504,15.02572762,0.0001643,42.9986,251.7283,259.9849,100.0808,0,U,57464,999,2791,0.00073009,9.682e-05,0.0
STARLINK-30116,2023-107J,2024-01-20T16:59:02.166144,15.0253553,0.0001524,43.0029,251.7877,260.1156,99.9514,0,U,57465,999,2781,0.0012614,0.00016877,0.0
STARLINK-30092,2023-107L,2024-01-20T16:44:39.457824,15.02533915,0.0001074,43.0002,251.7109,254.0454,106.027,0,U,57467,999,2800,9.1292e-05,1.03e-05,0.0
STARLINK-30039,2023-107M,2024-01-20T18:15:35.134848,15.02534569,0.000138,43.0016,251.3255,250.7071,109.3622,0,U,57468,999,2782,0.00041578,5.417e-05,0.0
